SATELLITE-1
1 00001U          26191.00000000  .00000000  00000-0  00000+0 0    02
2 00001  86.4000   0.0000 0001000   0.0000   0.0000 14.35663288    08
SATELLITE-2
1 00002U          26191.00000000  .00000000  00000-0  00000+0 0    03
2 00002  86.4000   0.0000 0001000   0.0000  32.7273 14.35663288    03
SATELLITE-3
1 00003U          26191.00000000  .00000000  00000-0  00000+0 0    04
2 00003  86.4000   0.0000 0001000   0.0000  65.4545 14.35663288    09
SATELLITE-4
1 00004U          26191.00000000  .00000000  00000-0  00000+0 0    05
2 00004  86.4000   0.0000 0001000   0.0000  98.1818 14.35663288    06
SATELLITE-5
1 00005U          26191.00000000  .00000000  00000-0  00000+0 0    06
2 00005  86.4000   0.0000 0001000   0.0000 130.9091 14.35663288    05
SATELLITE-6
1 00006U          26191.00000000  .00000000  00000-0  00000+0 0    07
2 00006  86.4000   0.0000 0001000   0.0000 163.6364 14.35663288    02
SATELLITE-7
1 00007U          26191.00000000  .00000000  00000-0  00000+0 0    08
2 00007  86.4000   0.0000 0001000   0.0000 196.3636 14.35663288    08
SATELLITE-8
1 00008U          26191.00000000  .00000000  00000-0  00000+0 0    09
2 00008  86.4000   0.0000 0001000   0.0000 229.0909 14.35663288    06
SATELLITE-9
1 00009U          26191.00000000  .00000000  00000-0  00000+0 0    00
2 00009  86.4000   0.0000 0001000   0.0000 261.8182 14.35663288    04
SATELLITE-10
1 00010U          26191.00000000  .00000000  00000-0  00000+0 0    02
2 00010  86.4000   0.0000 0001000   0.0000 294.5455 14.35663288    02
SATELLITE-11
1 00011U          26191.00000000  .00000000  00000-0  00000+0 0    03
2 00011  86.4000   0.0000 0001000   0.0000 327.2727 14.35663288    09
SATELLITE-12
1 00012U          26191.00000000  .00000000  00000-0  00000+0 0    04
2 00012  86.4000  30.0000 0001000   0.0000  16.3636 14.35663288    08
SATELLITE-13
1 00013U          26191.00000000  .00000000  00000-0  00000+0 0    05
2 00013  86.4000  30.0000 0001000   0.0000  49.0909 14.35663288    05
SATELLITE-14
1 00014U          26191.00000000  .00000000  00000-0  00000+0 0    06
2 00014  86.4000  30.0000 0001000   0.0000  81.8182 14.35663288    03
SATELLITE-15
1 00015U          26191.00000000  .00000000  00000-0  00000+0 0    07
2 00015  86.4000  30.0000 0001000   0.0000 114.5455 14.35663288    01
SATELLITE-16
1 00016U          26191.00000000  .00000000  00000-0  00000+0 0    08
2 00016  86.4000  30.0000 0001000   0.0000 147.2727 14.35663288    07
SATELLITE-17
1 00017U          26191.00000000  .00000000  00000-0  00000+0 0    09
2 00017  86.4000  30.0000 0001000   0.0000 180.0000 14.35663288    07
SATELLITE-18
1 00018U          26191.00000000  .00000000  00000-0  00000+0 0    00
2 00018  86.4000  30.0000 0001000   0.0000 212.7273 14.35663288    03
SATELLITE-19
1 00019U          26191.00000000  .00000000  00000-0  00000+0 0    01
2 00019  86.4000  30.0000 0001000   0.0000 245.4545 14.35663288    09
SATELLITE-20
1 00020U          26191.00000000  .00000000  00000-0  00000+0 0    03
2 00020  86.4000  30.0000 0001000   0.0000 278.1818 14.35663288    07
SATELLITE-21
1 00021U          26191.00000000  .00000000  00000-0  00000+0 0    04
2 00021  86.4000  30.0000 0001000   0.0000 310.9091 14.35663288    06
SATELLITE-22
1 00022U          26191.00000000  .00000000  00000-0  00000+0 0    05
2 00022  86.4000  30.0000 0001000   0.0000 343.6364 14.35663288    03
SATELLITE-23
1 00023U          26191.00000000  .00000000  00000-0  00000+0 0    06
2 00023  86.4000  60.0000 0001000   0.0000  32.7273 14.35663288    02
SATELLITE-24
1 00024U          26191.00000000  .00000000  00000-0  00000+0 0    07
2 00024  86.4000  60.0000 0001000   0.0000  65.4545 14.35663288    08
SATELLITE-25
1 00025U          26191.00000000  .00000000  00000-0  00000+0 0    08
2 00025  86.4000  60.0000 0001000   0.0000  98.1818 14.35663288    05
SATELLITE-26
1 00026U          26191.00000000  .00000000  00000-0  00000+0 0    09
2 00026  86.4000  60.0000 0001000   0.0000 130.9091 14.35663288    04
SATELLITE-27
1 00027U          26191.00000000  .00000000  00000-0  00000+0 0    00
2 00027  86.4000  60.0000 0001000   0.0000 163.6364 14.35663288    01
SATELLITE-28
1 00028U          26191.00000000  .00000000  00000-0  00000+0 0    01
2 00028  86.4000  60.0000 0001000   0.0000 196.3636 14.35663288    07
SATELLITE-29
1 00029U          26191.00000000  .00000000  00000-0  00000+0 0    02
2 00029  86.4000  60.0000 0001000   0.0000 229.0909 14.35663288    05
SATELLITE-30
1 00030U          26191.00000000  .00000000  00000-0  00000+0 0    04
2 00030  86.4000  60.0000 0001000   0.0000 261.8182 14.35663288    04
SATELLITE-31
1 00031U          26191.00000000  .00000000  00000-0  00000+0 0    05
2 00031  86.4000  60.0000 0001000   0.0000 294.5455 14.35663288    01
SATELLITE-32
1 00032U          26191.00000000  .00000000  00000-0  00000+0 0    06
2 00032  86.4000  60.0000 0001000   0.0000 327.2727 14.35663288    08
SATELLITE-33
1 00033U          26191.00000000  .00000000  00000-0  00000+0 0    07
2 00033  86.4000  60.0000 0001000   0.0000   0.0000 14.35663288    09
SATELLITE-34
1 00034U          26191.00000000  .00000000  00000-0  00000+0 0    08
2 00034  86.4000  90.0000 0001000   0.0000  49.0909 14.35663288    04
SATELLITE-35
1 00035U          26191.00000000  .00000000  00000-0  00000+0 0    09
2 00035  86.4000  90.0000 0001000   0.0000  81.8182 14.35663288    02
SATELLITE-36
1 00036U          26191.00000000  .00000000  00000-0  00000+0 0    00
2 00036  86.4000  90.0000 0001000   0.0000 114.5455 14.35663288    00
SATELLITE-37
1 00037U          26191.00000000  .00000000  00000-0  00000+0 0    01
2 00037  86.4000  90.0000 0001000   0.0000 147.2727 14.35663288    06
SATELLITE-38
1 00038U          26191.00000000  .00000000  00000-0  00000+0 0    02
2 00038  86.4000  90.0000 0001000   0.0000 180.0000 14.35663288    06
SATELLITE-39
1 00039U          26191.00000000  .00000000  00000-0  00000+0 0    03
2 00039  86.4000  90.0000 0001000   0.0000 212.7273 14.35663288    02
SATELLITE-40
1 00040U          26191.00000000  .00000000  00000-0  00000+0 0    05
2 00040  86.4000  90.0000 0001000   0.0000 245.4545 14.35663288    09
SATELLITE-41
1 00041U          26191.00000000  .00000000  00000-0  00000+0 0    06
2 00041  86.4000  90.0000 0001000   0.0000 278.1818 14.35663288    06
SATELLITE-42
1 00042U          26191.00000000  .00000000  00000-0  00000+0 0    07
2 00042  86.4000  90.0000 0001000   0.0000 310.9091 14.35663288    05
SATELLITE-43
1 00043U          26191.00000000  .00000000  00000-0  00000+0 0    08
2 00043  86.4000  90.0000 0001000   0.0000 343.6364 14.35663288    02
SATELLITE-44
1 00044U          26191.00000000  .00000000  00000-0  00000+0 0    09
2 00044  86.4000  90.0000 0001000   0.0000  16.3636 14.35663288    09
SATELLITE-45
1 00045U          26191.00000000  .00000000  00000-0  00000+0 0    00
2 00045  86.4000 120.0000 0001000   0.0000  65.4545 14.35663288    08
SATELLITE-46
1 00046U          26191.00000000  .00000000  00000-0  00000+0 0    01
2 00046  86.4000 120.0000 0001000   0.0000  98.1818 14.35663288    05
SATELLITE-47
1 00047U          26191.00000000  .00000000  00000-0  00000+0 0    02
2 00047  86.4000 120.0000 0001000   0.0000 130.9091 14.35663288    04
SATELLITE-48
1 00048U          26191.00000000  .00000000  00000-0  00000+0 0    03
2 00048  86.4000 120.0000 0001000   0.0000 163.6364 14.35663288    01
SATELLITE-49
1 00049U          26191.00000000  .00000000  00000-0  00000+0 0    04
2 00049  86.4000 120.0000 0001000   0.0000 196.3636 14.35663288    07
SATELLITE-50
1 00050U          26191.00000000  .00000000  00000-0  00000+0 0    06
2 00050  86.4000 120.0000 0001000   0.0000 229.0909 14.35663288    06
SATELLITE-51
1 00051U          26191.00000000  .00000000  00000-0  00000+0 0    07
2 00051  86.4000 120.0000 0001000   0.0000 261.8182 14.35663288    04
SATELLITE-52
1 00052U          26191.00000000  .00000000  00000-0  00000+0 0    08
2 00052  86.4000 120.0000 0001000   0.0000 294.5455 14.35663288    01
SATELLITE-53
1 00053U          26191.00000000  .00000000  00000-0  00000+0 0    09
2 00053  86.4000 120.0000 0001000   0.0000 327.2727 14.35663288    08
SATELLITE-54
1 00054U          26191.00000000  .00000000  00000-0  00000+0 0    00
2 00054  86.4000 120.0000 0001000   0.0000   0.0000 14.35663288    09
SATELLITE-55
1 00055U          26191.00000000  .00000000  00000-0  00000+0 0    01
2 00055  86.4000 120.0000 0001000   0.0000  32.7273 14.35663288    04
SATELLITE-56
1 00056U          26191.00000000  .00000000  00000-0  00000+0 0    02
2 00056  86.4000 150.0000 0001000   0.0000  81.8182 14.35663288    02
SATELLITE-57
1 00057U          26191.00000000  .00000000  00000-0  00000+0 0    03
2 00057  86.4000 150.0000 0001000   0.0000 114.5455 14.35663288    00
SATELLITE-58
1 00058U          26191.00000000  .00000000  00000-0  00000+0 0    04
2 00058  86.4000 150.0000 0001000   0.0000 147.2727 14.35663288    06
SATELLITE-59
1 00059U          26191.00000000  .00000000  00000-0  00000+0 0    05
2 00059  86.4000 150.0000 0001000   0.0000 180.0000 14.35663288    06
SATELLITE-60
1 00060U          26191.00000000  .00000000  00000-0  00000+0 0    07
2 00060  86.4000 150.0000 0001000   0.0000 212.7273 14.35663288    03
SATELLITE-61
1 00061U          26191.00000000  .00000000  00000-0  00000+0 0    08
2 00061  86.4000 150.0000 0001000   0.0000 245.4545 14.35663288    09
SATELLITE-62
1 00062U          26191.00000000  .00000000  00000-0  00000+0 0    09
2 00062  86.4000 150.0000 0001000   0.0000 278.1818 14.35663288    06
SATELLITE-63
1 00063U          26191.00000000  .00000000  00000-0  00000+0 0    00
2 00063  86.4000 150.0000 0001000   0.0000 310.9091 14.35663288    05
SATELLITE-64
1 00064U          26191.00000000  .00000000  00000-0  00000+0 0    01
2 00064  86.4000 150.0000 0001000   0.0000 343.6364 14.35663288    02
SATELLITE-65
1 00065U          26191.00000000  .00000000  00000-0  00000+0 0    02
2 00065  86.4000 150.0000 0001000   0.0000  16.3636 14.35663288    09
SATELLITE-66
1 00066U          26191.00000000  .00000000  00000-0  00000+0 0    03
2 00066  86.4000 150.0000 0001000   0.0000  49.0909 14.35663288    06
